{"type": "FeatureCollection", "features": [ {"type": "Feature", "properties": {"norad_id": 38552, "name": "METEOSAT-10 (MSG-3)", "group": "weather", "lat": -4.180483970228248, "lon": -17.166569244693424, "alt_km": 35782.349710963594, "timestamp": "2025-12-21T16:47:54.371615+00:00", "meta": {"OBJECT_NAME": "METEOSAT-10 (MSG-3)", "OBJECT_ID": "2012-035B", "EPOCH": "2025-12-21T08:03:51.373728", "MEAN_MOTION": 1.00276748, "ECCENTRICITY": 7.02e-05, "INCLINATION": 4.2476, "RA_OF_ASC_NODE": 61.6997, "ARG_OF_PERICENTER": 268.1719, "MEAN_ANOMALY": 241.5558, "EPHEMERIS_TYPE": 0, "CLASSIFICATION_TYPE": "U", "NORAD_CAT_ID": 38552, "ELEMENT_SET_NO": 999, "REV_AT_EPOCH": 4907, "BSTAR": 0, "MEAN_MOTION_DOT": 1.6e-07, "MEAN_MOTION_DDOT": 0}, "tle": {"line1": "1 38552U 12035B   25355.33601127  .00000016  00000+0  00000+0 0  9992", "line2": "2 38552   4.2476  61.6997 0000702 268.1719 241.5558  1.00276748 49074"}}, "geometry": {"type": "Point", "coordinates": [-17.166569244693424, -4.180483970228248]}}, {"type": "Feature", "properties": {"norad_id": 38771, "name": "METOP-B", "group": "weather", "lat": -11.924870737858578, "lon": -136.34214608557434, "alt_km": 824.0169294522802, "timestamp": "2025-12-21T16:47:54.371626+00:00", "meta": {"OBJECT_NAME": "METOP-B", "OBJECT_ID": "2012-049A", "EPOCH": "2025-12-21T10:49:48.935712", "MEAN_MOTION": 14.21411461, "ECCENTRICITY": 0.0003188, "INCLINATION": 98.6786, "RA_OF_ASC_NODE": 45.2619, "ARG_OF_PERICENTER": 125.7097, "MEAN_ANOMALY": 234.4377, "EPHEMERIS_TYPE": 0, "CLASSIFICATION_TYPE": "U", "NORAD_CAT_ID": 38771, "ELEMENT_SET_NO": 999, "REV_AT_EPOCH": 68801, "BSTAR": 7.1671e-05, "MEAN_MOTION_DOT": 1.13e-06, "MEAN_MOTION_DDOT": 0}, "tle": {"line1": "1 38771U 12049A   25355.45126083  .00000113  00000+0  71671-4 0  9991", "line2": "2 38771  98.6786  45.2619 0003188 125.7097 234.4377 14.21411461688018"}}, "geometry": {"type": "Point", "coordinates": [-136.34214608557434, -11.924870737858578]}}, {"type": "Feature", "properties": {"norad_id": 39216, "name": "INSAT-3D", "group": "weather", "lat": 0.6926896758334037, "lon": 111.95538376466307, "alt_km": 35789.16444167773, "timestamp": "2025-12-21T16:47:54.371639+00:00", "meta": {"OBJECT_NAME": "INSAT-3D", "OBJECT_ID": "2013-038B", "EPOCH": "2025-12-21T12:45:10.011168", "MEAN_MOTION": 1.00276515, "ECCENTRICITY": 0.0001801, "INCLINATION": 1.4662, "RA_OF_ASC_NODE": 84.8978, "ARG_OF_PERICENTER": 152.7751, "MEAN_ANOMALY": 173.4597, "EPHEMERIS_TYPE": 0, "CLASSIFICATION_TYPE": "U", "NORAD_CAT_ID": 39216, "ELEMENT_SET_NO": 999, "REV_AT_EPOCH": 4529, "BSTAR": 0, "MEAN_MOTION_DOT": -3.17e-06, "MEAN_MOTION_DDOT": 0}, "tle": {"line1": "1 39216U 13038B   25355.53136587 -.00000317  00000+0  00000+0 0  9994", "line2": "2 39216   1.4662  84.8978 0001801 152.7751 173.4597  1.00276515 45297"}}, "geometry": {"type": "Point", "coordinates": [111.95538376466307, 0.6926896758334037]}}, {"type": "Feature", "properties": {"norad_id": 39260, "name": "FENGYUN 3C", "group": "weather", "lat": -72.77559322268397, "lon": 124.1869120094342, "alt_km": 846.2614530194405, "timestamp": "2025-12-21T16:47:54.371650+00:00", "meta": {"OBJECT_NAME": "FENGYUN 3C", "OBJECT_ID": "2013-052A", "EPOCH": "2025-12-21T12:12:22.767840", "MEAN_MOTION": 14.1569875, "ECCENTRICITY": 0.0014768, "INCLINATION": 98.4773, "RA_OF_ASC_NODE": 332.7602, "ARG_OF_PERICENTER": 170.5554, "MEAN_ANOMALY": 189.5901, "EPHEMERIS_TYPE": 0, "CLASSIFICATION_TYPE": "U", "NORAD_CAT_ID": 39260, "ELEMENT_SET_NO": 999, "REV_AT_EPOCH": 63342, "BSTAR": 4.8563e-05, "MEAN_MOTION_DOT": 5.4e-07, "MEAN_MOTION_DDOT": 0}, "tle": {"line1": "1 39260U 13052A   25355.50859685  .00000054  00000+0  48563-4 0  9995", "line2": "2 39260  98.4773 332.7602 0014768 170.5554 189.5901 14.15698750633423"}}, "geometry": {"type": "Point", "coordinates": [124.1869120094342, -72.77559322268397]}}, {"type": "Feature", "properties": {"norad_id": 40069, "name": "METEOR-M 2", "group": "weather", "lat": 58.26912913710591, "lon": -41.03823183520097, "alt_km": 817.0712279517602, "timestamp": "2025-12-21T16:47:54.371661+00:00", "meta": {"OBJECT_NAME": "METEOR-M 2", "OBJECT_ID": "2014-037A", "EPOCH": "2025-12-21T13:08:28.441824", "MEAN_MOTION": 14.21390126, "ECCENTRICITY": 0.0005408, "INCLINATION": 98.4904, "RA_OF_ASC_NODE": 332.7943, "ARG_OF_PERICENTER": 181.863, "MEAN_ANOMALY": 178.2529, "EPHEMERIS_TYPE": 0, "CLASSIFICATION_TYPE": "U", "NORAD_CAT_ID": 40069, "ELEMENT_SET_NO": 999, "REV_AT_EPOCH": 59408, "BSTAR": 9.1838e-05, "MEAN_MOTION_DOT": 1.59e-06, "MEAN_MOTION_DDOT": 0}, "tle": {"line1": "1 40069U 14037A   25355.54755141  .00000159  00000+0  91838-4 0  9993", "line2": "2 40069  98.4904 332.7943 0005408 181.8630 178.2529 14.21390126594089"}}, "geometry": {"type": "Point", "coordinates": [-41.03823183520097, 58.26912913710591]}}, {"type": "Feature", "properties": {"norad_id": 40267, "name": "HIMAWARI-8", "group": "weather", "lat": 0.019915666523268573, "lon": 123.14718201322282, "alt_km": 35790.17734698464, "timestamp": "2025-12-21T16:47:54.371673+00:00", "meta": {"OBJECT_NAME": "HIMAWARI-8", "OBJECT_ID": "2014-060A", "EPOCH": "2025-12-21T12:57:31.239360", "MEAN_MOTION": 1.00270596, "ECCENTRICITY": 8.91e-05, "INCLINATION": 0.0387, "RA_OF_ASC_NODE": 133.414, "ARG_OF_PERICENTER": 163.4755, "MEAN_ANOMALY": 128.5136, "EPHEMERIS_TYPE": 0, "CLASSIFICATION_TYPE": "U", "NORAD_CAT_ID": 40267, "ELEMENT_SET_NO": 999, "REV_AT_EPOCH": 4097, "BSTAR": 0, "MEAN_MOTION_DOT": -2.53e-06, "MEAN_MOTION_DDOT": 0}, "tle": {"line1": "1 40267U 14060A   25355.53994490 -.00000253  00000+0  00000+0 0  9992", "line2": "2 40267   0.0387 133.4140 0000891 163.4755 128.5136  1.00270596 40970"}}, "geometry": {"type": "Point", "coordinates": [123.14718201322282, 0.019915666523268573]}}, {"type": "Feature", "properties": {"norad_id": 40367, "name": "FENGYUN 2G", "group": "weather", "lat": 0.6314480025517342, "lon": 81.70181963307118, "alt_km": 35799.86104836302, "timestamp": "2025-12-21T16:47:54.371685+00:00", "meta": {"OBJECT_NAME": "FENGYUN 2G", "OBJECT_ID": "2014-090A", "EPOCH": "2025-12-21T01:41:07.810656", "MEAN_MOTION": 1.00261103, "ECCENTRICITY": 0.00026608, "INCLINATION": 5.188, "RA_OF_ASC_NODE": 75.0029, "ARG_OF_PERICENTER": 203.8012, "MEAN_ANOMALY": 295.6309, "EPHEMERIS_TYPE": 0, "CLASSIFICATION_TYPE": "U", "NORAD_CAT_ID": 40367, "ELEMENT_SET_NO": 999, "REV_AT_EPOCH": 4021, "BSTAR": 0, "MEAN_MOTION_DOT": -2.79e-06, "MEAN_MOTION_DDOT": 0}, "tle": {"line1": "1 40367U 14090A   25355.07022929 -.00000279  00000+0  00000+0 0  9992", "line2": "2 40367   5.1880  75.0029 0002660 203.8012 295.6309  1.00261103 40212"}}, "geometry": {"type": "Point", "coordinates": [81.70181963307118, 0.6314480025517342]}}, {"type": "Feature", "properties": {"norad_id": 40732, "name": "METEOSAT-11 (MSG-4)", "group": "weather", "lat": -2.7260895286389744, "lon": -8.302028932124886, "alt_km": 35789.6012947467, "timestamp": "2025-12-21T16:47:54.371697+00:00", "meta": {"OBJECT_NAME": "METEOSAT-11 (MSG-4)", "OBJECT_ID": "2015-034A", "EPOCH": "2025-12-21T02:58:07.934880", "MEAN_MOTION": 1.00270116, "ECCENTRICITY": 8.178e-05, "INCLINATION": 2.7571, "RA_OF_ASC_NODE": 71.9801, "ARG_OF_PERICENTER": 136.5122, "MEAN_ANOMALY": 295.1851, "EPHEMERIS_TYPE": 0, "CLASSIFICATION_TYPE": "U", "NORAD_CAT_ID": 40732, "ELEMENT_SET_NO": 999, "REV_AT_EPOCH": 543, "BSTAR": 0, "MEAN_MOTION_DOT": 8.2e-07, "MEAN_MOTION_DDOT": 0}, "tle": {"line1": "1 40732U 15034A   25355.12370295  .00000082  00000+0  00000+0 0  9996", "line2": "2 40732   2.7571  71.9801 0000817 136.5122 295.1851  1.00270116  5433"}}, "geometry": {"type": "Point", "coordinates": [-8.302028932124886, -2.7260895286389744]}}, {"type": "Feature", "properties": {"norad_id": 41105, "name": "ELEKTRO-L 2", "group": "weather", "lat": -6.061052395207448, "lon": -32.03634085323701, "alt_km": 35776.464887579124, "timestamp": "2025-12-21T16:47:54.371709+00:00", "meta": {"OBJECT_NAME": "ELEKTRO-L 2", "OBJECT_ID": "2015-074A", "EPOCH": "2025-12-21T09:42:19.444608", "MEAN_MOTION": 1.00272503, "ECCENTRICITY": 0.0003492, "INCLINATION": 6.2461, "RA_OF_ASC_NODE": 72.7254, "ARG_OF_PERICENTER": 209.0938, "MEAN_ANOMALY": 299.5117, "EPHEMERIS_TYPE": 0, "CLASSIFICATION_TYPE": "U", "NORAD_CAT_ID": 41105, "ELEMENT_SET_NO": 999, "REV_AT_EPOCH": 3672, "BSTAR": 0, "MEAN_MOTION_DOT": -9.9e-07, "MEAN_MOTION_DDOT": 0}, "tle": {"line1": "1 41105U 15074A   25355.40439172 -.00000099  00000+0  00000+0 0  9995", "line2": "2 41105   6.2461  72.7254 0003492 209.0938 299.5117  1.00272503 36720"}}, "geometry": {"type": "Point", "coordinates": [-32.03634085323701, -6.061052395207448]}}, {"type": "Feature", "properties": {"norad_id": 41752, "name": "INSAT-3DR", "group": "weather", "lat": -0.034048875988166666, "lon": 56.56663639628066, "alt_km": 35835.17362924876, "timestamp": "2025-12-21T16:47:54.371721+00:00", "meta": {"OBJECT_NAME": "INSAT-3DR", "OBJECT_ID": "2016-054A", "EPOCH": "2025-12-21T11:50:18.064032", "MEAN_MOTION": 1.00271559, "ECCENTRICITY": 0.0014142, "INCLINATION": 0.1129, "RA_OF_ASC_NODE": 86.3015, "ARG_OF_PERICENTER": 185.3573, "MEAN_ANOMALY": 70.2173, "EPHEMERIS_TYPE": 0, "CLASSIFICATION_TYPE": "U", "NORAD_CAT_ID": 41752, "ELEMENT_SET_NO": 999, "REV_AT_EPOCH": 3403, "BSTAR": 0, "MEAN_MOTION_DOT": -5.4e-07, "MEAN_MOTION_DDOT": 0}, "tle": {"line1": "1 41752U 16054A   25355.49326463 -.00000054  00000+0  00000+0 0  9990", "line2": "2 41752   0.1129  86.3015 0014142 185.3573  70.2173  1.00271559 34031"}}, "geometry": {"type": "Point", "coordinates": [56.56663639628066, -0.034048875988166666]}}]}